[
    {
        "Altitude(m)": 717195.4504124222,
        "Argument of Periapsis(deg)": 0.005695060593313534,
        "Eccentricity": 0.0,
        "Inclination(deg)": 45.0,
        "Latitude(deg)": -43.49326349868677,
        "Longitude(deg)": -6.045552887159885,
        "Mean Anomaly(deg)": -76.05159167625958,
        "RAAN(deg)": 164.99462402927088,
        "Satellite Name": "Constellation 1 743",
        "Satellite Number": 743,
        "Semi-Major Axis(m)": 7083131.272910544,
        "Time(s)": 95
    },
    {
        "Altitude(m)": 717189.5615080453,
        "Argument of Periapsis(deg)": 0.00575500859955894,
        "Eccentricity": 0.0,
        "Inclination(deg)": 45.0,
        "Latitude(deg)": -43.47903795062571,
        "Longitude(deg)": -5.968732105140628,
        "Mean Anomaly(deg)": -75.99089053600972,
        "RAAN(deg)": 164.99456744010533,
        "Satellite Name": "Constellation 1 743",
        "Satellite Number": 743,
        "Semi-Major Axis(m)": 7083131.272910544,
        "Time(s)": 96
    },
    {
        "Altitude(m)": 717183.6487467851,
        "Argument of Periapsis(deg)": 0.005814956605804345,
        "Eccentricity": 0.0,
        "Inclination(deg)": 45.0,
        "Latitude(deg)": -43.464755126727475,
        "Longitude(deg)": -5.891949107472324,
        "Mean Anomaly(deg)": -75.93018939575978,
        "RAAN(deg)": 164.99451085093978,
        "Satellite Name": "Constellation 1 743",
        "Satellite Number": 743,
        "Semi-Major Axis(m)": 7083131.272910544,
        "Time(s)": 97
    },
    {
        "Altitude(m)": 717177.7121503879,
        "Argument of Periapsis(deg)": 0.00587490461204975,
        "Eccentricity": 0.0,
        "Inclination(deg)": 45.0,
        "Latitude(deg)": -43.45041508178461,
        "Longitude(deg)": -5.815204177654046,
        "Mean Anomaly(deg)": -75.86948825550989,
        "RAAN(deg)": 164.99445426177417,
        "Satellite Name": "Constellation 1 743",
        "Satellite Number": 743,
        "Semi-Major Axis(m)": 7083131.272910544,
        "Time(s)": 98
    },
    {
        "Altitude(m)": 717171.7517406803,
        "Argument of Periapsis(deg)": 0.005934852618295156,
        "Eccentricity": 0.0,
        "Inclination(deg)": 45.0,
        "Latitude(deg)": -43.436017870742965,
        "Longitude(deg)": -5.738497430541185,
        "Mean Anomaly(deg)": -75.80878711526,
        "RAAN(deg)": 164.9943976726086,
        "Satellite Name": "Constellation 1 743",
        "Satellite Number": 743,
        "Semi-Major Axis(m)": 7083131.272910544,
        "Time(s)": 99
    },
    {
        "Altitude(m)": 717165.7675395887,
        "Argument of Periapsis(deg)": 0.005994800624540561,
        "Eccentricity": 0.0,
        "Inclination(deg)": 45.0,
        "Latitude(deg)": -43.421563548700895,
        "Longitude(deg)": -5.661828980442678,
        "Mean Anomaly(deg)": -75.74808597501008,
        "RAAN(deg)": 164.99434108344303,
        "Satellite Name": "Constellation 1 743",
        "Satellite Number": 743,
        "Semi-Major Axis(m)": 7083131.272910544,
        "Time(s)": 100
    },
    {
        "Altitude(m)": 717159.7595691114,
        "Argument of Periapsis(deg)": 0.006054748630785968,
        "Eccentricity": 0.0,
        "Inclination(deg)": 45.0,
        "Latitude(deg)": -43.40705217090874,
        "Longitude(deg)": -5.5851989411202085,
        "Mean Anomaly(deg)": -75.68738483476022,
        "RAAN(deg)": 164.99428449427748,
        "Satellite Name": "Constellation 1 743",
        "Satellite Number": 743,
        "Semi-Major Axis(m)": 7083131.272910544,
        "Time(s)": 101
    },
    {
        "Altitude(m)": 717153.7278513423,
        "Argument of Periapsis(deg)": 0.006114696637031373,
        "Eccentricity": 0.0,
        "Inclination(deg)": 45.0,
        "Latitude(deg)": -43.39248379276753,
        "Longitude(deg)": -5.508607425787325,
        "Mean Anomaly(deg)": -75.62668369451028,
        "RAAN(deg)": 164.99422790511193,
        "Satellite Name": "Constellation 1 743",
        "Satellite Number": 743,
        "Semi-Major Axis(m)": 7083131.272910544,
        "Time(s)": 102
    },
    {
        "Altitude(m)": 717147.6724084639,
        "Argument of Periapsis(deg)": 0.006174644643276778,
        "Eccentricity": 0.0,
        "Inclination(deg)": 45.0,
        "Latitude(deg)": -43.37785846982844,
        "Longitude(deg)": -5.432054547109668,
        "Mean Anomaly(deg)": -75.56598255426046,
        "RAAN(deg)": 164.99417131594632,
        "Satellite Name": "Constellation 1 743",
        "Satellite Number": 743,
        "Semi-Major Axis(m)": 7083131.272910544,
        "Time(s)": 103
    },
    {
        "Altitude(m)": 717141.5932627375,
        "Argument of Periapsis(deg)": 0.006234592649522184,
        "Eccentricity": 0.0,
        "Inclination(deg)": 45.0,
        "Latitude(deg)": -43.36317625779187,
        "Longitude(deg)": -5.355540585300296,
        "Mean Anomaly(deg)": -75.5052814140105,
        "RAAN(deg)": 164.99411472678077,
        "Satellite Name": "Constellation 1 743",
        "Satellite Number": 743,
        "Semi-Major Axis(m)": 7083131.272910544,
        "Time(s)": 104
    },
    {
        "Altitude(m)": 717135.4904365143,
        "Argument of Periapsis(deg)": 0.00629454065576759,
        "Eccentricity": 0.0,
        "Inclination(deg)": 45.0,
        "Latitude(deg)": -43.348437212505594,
        "Longitude(deg)": -5.279065315732203,
        "Mean Anomaly(deg)": -75.4445802737606,
        "RAAN(deg)": 164.99405813761518,
        "Satellite Name": "Constellation 1 743",
        "Satellite Number": 743,
        "Semi-Major Axis(m)": 7083131.272910544,
        "Time(s)": 105
    },
    {
        "Altitude(m)": 717129.3639522368,
        "Argument of Periapsis(deg)": 0.006354488662012995,
        "Eccentricity": 0.0,
        "Inclination(deg)": 45.0,
        "Latitude(deg)": -43.333641389965514,
        "Longitude(deg)": -5.202629017519339,
        "Mean Anomaly(deg)": -75.38387913351072,
        "RAAN(deg)": 164.99400154844963,
        "Satellite Name": "Constellation 1 743",
        "Satellite Number": 743,
        "Semi-Major Axis(m)": 7083131.272910544,
        "Time(s)": 106
    },
    {
        "Altitude(m)": 717123.2138324261,
        "Argument of Periapsis(deg)": 0.006414436668258401,
        "Eccentricity": 0.0,
        "Inclination(deg)": 45.0,
        "Latitude(deg)": -43.31878884631365,
        "Longitude(deg)": -5.126231801128069,
        "Mean Anomaly(deg)": -75.32317799326087,
        "RAAN(deg)": 164.99394495928405,
        "Satellite Name": "Constellation 1 743",
        "Satellite Number": 743,
        "Semi-Major Axis(m)": 7083131.272910544,
        "Time(s)": 107
    },
    {
        "Altitude(m)": 717117.0400996951,
        "Argument of Periapsis(deg)": 0.0064743846745038075,
        "Eccentricity": 0.0,
        "Inclination(deg)": 45.0,
        "Latitude(deg)": -43.30387963783746,
        "Longitude(deg)": -5.049873776473604,
        "Mean Anomaly(deg)": -75.2624768530109,
        "RAAN(deg)": 164.99388837011847,
        "Satellite Name": "Constellation 1 743",
        "Satellite Number": 743,
        "Semi-Major Axis(m)": 7083131.272910544,
        "Time(s)": 108
    },
    {
        "Altitude(m)": 717110.8427767372,
        "Argument of Periapsis(deg)": 0.0065343326807492125,
        "Eccentricity": 0.0,
        "Inclination(deg)": 45.0,
        "Latitude(deg)": -43.28891382096901,
        "Longitude(deg)": -4.973555052920203,
        "Mean Anomaly(deg)": -75.20177571276099,
        "RAAN(deg)": 164.99383178095292,
        "Satellite Name": "Constellation 1 743",
        "Satellite Number": 743,
        "Semi-Major Axis(m)": 7083131.272910544,
        "Time(s)": 109
    },
    {
        "Altitude(m)": 717104.6218863388,
        "Argument of Periapsis(deg)": 0.0065942806869946176,
        "Eccentricity": 0.0,
        "Inclination(deg)": 45.0,
        "Latitude(deg)": -43.273891452284,
        "Longitude(deg)": -4.897275739279933,
        "Mean Anomaly(deg)": -75.14107457251114,
        "RAAN(deg)": 164.99377519178734,
        "Satellite Name": "Constellation 1 743",
        "Satellite Number": 743,
        "Semi-Major Axis(m)": 7083131.272910544,
        "Time(s)": 110
    },
    {
        "Altitude(m)": 717098.3774513685,
        "Argument of Periapsis(deg)": 0.006654228693240024,
        "Eccentricity": 0.0,
        "Inclination(deg)": 45.0,
        "Latitude(deg)": -43.25881258850123,
        "Longitude(deg)": -4.82103611190952,
        "Mean Anomaly(deg)": -75.08037343226123,
        "RAAN(deg)": 164.99371860262178,
        "Satellite Name": "Constellation 1 743",
        "Satellite Number": 743,
        "Semi-Major Axis(m)": 7083131.272910544,
        "Time(s)": 111
    },
    {
        "Altitude(m)": 717092.1094947784,
        "Argument of Periapsis(deg)": 0.006714176699485429,
        "Eccentricity": 0.0,
        "Inclination(deg)": 45.0,
        "Latitude(deg)": -43.24367728648046,
        "Longitude(deg)": -4.744835942321872,
        "Mean Anomaly(deg)": -75.01967229201126,
        "RAAN(deg)": 164.9936620134562,
        "Satellite Name": "Constellation 1 743",
        "Satellite Number": 743,
        "Semi-Major Axis(m)": 7083131.272910544,
        "Time(s)": 112
    },
    {
        "Altitude(m)": 717085.8180396081,
        "Argument of Periapsis(deg)": 0.006774124705730835,
        "Eccentricity": 0.0,
        "Inclination(deg)": 45.0,
        "Latitude(deg)": -43.228485603223376,
        "Longitude(deg)": -4.668675505768139,
        "Mean Anomaly(deg)": -74.95897115176143,
        "RAAN(deg)": 164.99360542429065,
        "Satellite Name": "Constellation 1 743",
        "Satellite Number": 743,
        "Semi-Major Axis(m)": 7083131.272910544,
        "Time(s)": 113
    }
]